[
  {
    "COMMENT": "GENERATED VIA SPACETRACK.ORG API",
    "ORIGINATOR": "18 SPCS",
    "NORAD_CAT_ID": "48621",
    "OBJECT_NAME": "HAIYANG 2D",
    "OBJECT_TYPE": "PAYLOAD",
    "CLASSIFICATION_TYPE": "U",
    "INTLDES": "21043A",
    "EPOCH": "2023-08-26 01:37:45",
    "EPOCH_MICROSECONDS": "594912",
    "MEAN_MOTION": "13.83375823",
    "ECCENTRICITY": "0.000754",
    "INCLINATION": "66",
    "RA_OF_ASC_NODE": "339.3828",
    "ARG_OF_PERICENTER": "265.3495",
    "MEAN_ANOMALY": "94.6712",
    "EPHEMERIS_TYPE": "0",
    "ELEMENT_SET_NO": "999",
    "REV_AT_EPOCH": "11465",
    "BSTAR": "0.00005608",
    "MEAN_MOTION_DOT": "-0.00000019",
    "MEAN_MOTION_DDOT": "0",
    "FILE": "3989180",
    "TLE_LINE0": "0 HAIYANG 2D",
    "TLE_LINE1": "1 48621U 21043A   23238.06788883 -.00000019  00000-0  56080-4 0  9991",
    "TLE_LINE2": "2 48621  66.0000 339.3828 0007540 265.3495  94.6712 13.83375823114650",
    "OBJECT_ID": "2021-043A",
    "OBJECT_NUMBER": "48621",
    "SEMIMAJOR_AXIS": "7330.074",
    "PERIOD": "104.093",
    "APOGEE": "957.466",
    "PERIGEE": "946.413",
    "DECAYED": "0"
  },
  {
    "COMMENT": "GENERATED VIA SPACETRACK.ORG API",
    "ORIGINATOR": "18 SPCS",
    "NORAD_CAT_ID": "48621",
    "OBJECT_NAME": "HAIYANG 2D",
    "OBJECT_TYPE": "PAYLOAD",
    "CLASSIFICATION_TYPE": "U",
    "INTLDES": "21043A",
    "EPOCH": "2023-08-26 10:18:16",
    "EPOCH_MICROSECONDS": "894080",
    "MEAN_MOTION": "13.83375867",
    "ECCENTRICITY": "0.0007537",
    "INCLINATION": "65.9999",
    "RA_OF_ASC_NODE": "338.4829",
    "ARG_OF_PERICENTER": "265.3915",
    "MEAN_ANOMALY": "94.6292",
    "EPHEMERIS_TYPE": "0",
    "ELEMENT_SET_NO": "999",
    "REV_AT_EPOCH": "11470",
    "BSTAR": "0.000053399",
    "MEAN_MOTION_DOT": "-0.00000022",
    "MEAN_MOTION_DDOT": "0",
    "FILE": "3989579",
    "TLE_LINE0": "0 HAIYANG 2D",
    "TLE_LINE1": "1 48621U 21043A   23238.42936220 -.00000022  00000-0  53399-4 0  9995",
    "TLE_LINE2": "2 48621  65.9999 338.4829 0007537 265.3915  94.6292 13.83375867114706",
    "OBJECT_ID": "2021-043A",
    "OBJECT_NUMBER": "48621",
    "SEMIMAJOR_AXIS": "7330.074",
    "PERIOD": "104.093",
    "APOGEE": "957.464",
    "PERIGEE": "946.415",
    "DECAYED": "0"
  },
  {
    "COMMENT": "GENERATED VIA SPACETRACK.ORG API",
    "ORIGINATOR": "18 SPCS",
    "NORAD_CAT_ID": "48621",
    "OBJECT_NAME": "HAIYANG 2D",
    "OBJECT_TYPE": "PAYLOAD",
    "CLASSIFICATION_TYPE": "U",
    "INTLDES": "21043A",
    "EPOCH": "2023-08-26 13:46:29",
    "EPOCH_MICROSECONDS": "415648",
    "MEAN_MOTION": "13.83375887",
    "ECCENTRICITY": "0.0007536",
    "INCLINATION": "65.9999",
    "RA_OF_ASC_NODE": "338.1229",
    "ARG_OF_PERICENTER": "265.4324",
    "MEAN_ANOMALY": "94.5884",
    "EPHEMERIS_TYPE": "0",
    "ELEMENT_SET_NO": "999",
    "REV_AT_EPOCH": "11468",
    "BSTAR": "0.000056359",
    "MEAN_MOTION_DOT": "-0.00000019",
    "MEAN_MOTION_DDOT": "0",
    "FILE": "3989608",
    "TLE_LINE0": "0 HAIYANG 2D",
    "TLE_LINE1": "1 48621U 21043A   23238.57395157 -.00000019  00000-0  56359-4 0  9994",
    "TLE_LINE2": "2 48621  65.9999 338.1229 0007536 265.4324  94.5884 13.83375887114686",
    "OBJECT_ID": "2021-043A",
    "OBJECT_NUMBER": "48621",
    "SEMIMAJOR_AXIS": "7330.074",
    "PERIOD": "104.093",
    "APOGEE": "957.463",
    "PERIGEE": "946.415",
    "DECAYED": "0"
  },
  {
    "COMMENT": "GENERATED VIA SPACETRACK.ORG API",
    "ORIGINATOR": "18 SPCS",
    "NORAD_CAT_ID": "48621",
    "OBJECT_NAME": "HAIYANG 2D",
    "OBJECT_TYPE": "PAYLOAD",
    "CLASSIFICATION_TYPE": "U",
    "INTLDES": "21043A",
    "EPOCH": "2023-08-26 18:58:48",
    "EPOCH_MICROSECONDS": "194976",
    "MEAN_MOTION": "13.83375935",
    "ECCENTRICITY": "0.0007531",
    "INCLINATION": "65.9999",
    "RA_OF_ASC_NODE": "337.583",
    "ARG_OF_PERICENTER": "265.4657",
    "MEAN_ANOMALY": "94.5551",
    "EPHEMERIS_TYPE": "0",
    "ELEMENT_SET_NO": "999",
    "REV_AT_EPOCH": "11475",
    "BSTAR": "0.000061457",
    "MEAN_MOTION_DOT": "-0.00000014",
    "MEAN_MOTION_DDOT": "0",
    "FILE": "3989837",
    "TLE_LINE0": "0 HAIYANG 2D",
    "TLE_LINE1": "1 48621U 21043A   23238.79083559 -.00000014  00000-0  61457-4 0  9998",
    "TLE_LINE2": "2 48621  65.9999 337.5830 0007531 265.4657  94.5551 13.83375935114754",
    "OBJECT_ID": "2021-043A",
    "OBJECT_NUMBER": "48621",
    "SEMIMAJOR_AXIS": "7330.074",
    "PERIOD": "104.093",
    "APOGEE": "957.459",
    "PERIGEE": "946.419",
    "DECAYED": "0"
  },
  {
    "COMMENT": "GENERATED VIA SPACETRACK.ORG API",
    "ORIGINATOR": "18 SPCS",
    "NORAD_CAT_ID": "48621",
    "OBJECT_NAME": "HAIYANG 2D",
    "OBJECT_TYPE": "PAYLOAD",
    "CLASSIFICATION_TYPE": "U",
    "INTLDES": "21043A",
    "EPOCH": "2023-08-26 20:42:54",
    "EPOCH_MICROSECONDS": "453600",
    "MEAN_MOTION": "13.83375943",
    "ECCENTRICITY": "0.000753",
    "INCLINATION": "65.9999",
    "RA_OF_ASC_NODE": "337.403",
    "ARG_OF_PERICENTER": "265.471",
    "MEAN_ANOMALY": "94.5499",
    "EPHEMERIS_TYPE": "0",
    "ELEMENT_SET_NO": "999",
    "REV_AT_EPOCH": "11472",
    "BSTAR": "0.000061644",
    "MEAN_MOTION_DOT": "-0.00000013",
    "MEAN_MOTION_DDOT": "0",
    "FILE": "3989878",
    "TLE_LINE0": "0 HAIYANG 2D",
    "TLE_LINE1": "1 48621U 21043A   23238.86313025 -.00000013  00000-0  61644-4 0  9997",
    "TLE_LINE2": "2 48621  65.9999 337.4030 0007530 265.4710  94.5499 13.83375943114721",
    "OBJECT_ID": "2021-043A",
    "OBJECT_NUMBER": "48621",
    "SEMIMAJOR_AXIS": "7330.074",
    "PERIOD": "104.093",
    "APOGEE": "957.459",
    "PERIGEE": "946.420",
    "DECAYED": "0"
  },
  {
    "COMMENT": "GENERATED VIA SPACETRACK.ORG API",
    "ORIGINATOR": "18 SPCS",
    "NORAD_CAT_ID": "48621",
    "OBJECT_NAME": "HAIYANG 2D",
    "OBJECT_TYPE": "PAYLOAD",
    "CLASSIFICATION_TYPE": "U",
    "INTLDES": "21043A",
    "EPOCH": "2023-08-27 03:39:19",
    "EPOCH_MICROSECONDS": "492416",
    "MEAN_MOTION": "13.83375979",
    "ECCENTRICITY": "0.0007533",
    "INCLINATION": "65.9999",
    "RA_OF_ASC_NODE": "336.6831",
    "ARG_OF_PERICENTER": "265.4949",
    "MEAN_ANOMALY": "94.5259",
    "EPHEMERIS_TYPE": "0",
    "ELEMENT_SET_NO": "999",
    "REV_AT_EPOCH": "11480",
    "BSTAR": "0.000058583",
    "MEAN_MOTION_DOT": "-0.00000017",
    "MEAN_MOTION_DDOT": "0",
    "FILE": "3990133",
    "TLE_LINE0": "0 HAIYANG 2D",
    "TLE_LINE1": "1 48621U 21043A   23239.15230894 -.00000017  00000-0  58583-4 0  9994",
    "TLE_LINE2": "2 48621  65.9999 336.6831 0007533 265.4949  94.5259 13.83375979114800",
    "OBJECT_ID": "2021-043A",
    "OBJECT_NUMBER": "48621",
    "SEMIMAJOR_AXIS": "7330.074",
    "PERIOD": "104.093",
    "APOGEE": "957.461",
    "PERIGEE": "946.417",
    "DECAYED": "0"
  },
  {
    "COMMENT": "GENERATED VIA SPACETRACK.ORG API",
    "ORIGINATOR": "18 SPCS",
    "NORAD_CAT_ID": "48621",
    "OBJECT_NAME": "HAIYANG 2D",
    "OBJECT_TYPE": "PAYLOAD",
    "CLASSIFICATION_TYPE": "U",
    "INTLDES": "21043A",
    "EPOCH": "2023-08-27 08:51:38",
    "EPOCH_MICROSECONDS": "266560",
    "MEAN_MOTION": "13.83376023",
    "ECCENTRICITY": "0.0007532",
    "INCLINATION": "65.9999",
    "RA_OF_ASC_NODE": "336.1431",
    "ARG_OF_PERICENTER": "265.5184",
    "MEAN_ANOMALY": "94.5024",
    "EPHEMERIS_TYPE": "0",
    "ELEMENT_SET_NO": "999",
    "REV_AT_EPOCH": "11483",
    "BSTAR": "0.000058255",
    "MEAN_MOTION_DOT": "-0.00000017",
    "MEAN_MOTION_DDOT": "0",
    "FILE": "3990361",
    "TLE_LINE0": "0 HAIYANG 2D",
    "TLE_LINE1": "1 48621U 21043A   23239.36919290 -.00000017  00000-0  58255-4 0  9997",
    "TLE_LINE2": "2 48621  65.9999 336.1431 0007532 265.5184  94.5024 13.83376023114836",
    "OBJECT_ID": "2021-043A",
    "OBJECT_NUMBER": "48621",
    "SEMIMAJOR_AXIS": "7330.074",
    "PERIOD": "104.093",
    "APOGEE": "957.460",
    "PERIGEE": "946.418",
    "DECAYED": "0"
  },
  {
    "COMMENT": "GENERATED VIA SPACETRACK.ORG API",
    "ORIGINATOR": "18 SPCS",
    "NORAD_CAT_ID": "48621",
    "OBJECT_NAME": "HAIYANG 2D",
    "OBJECT_TYPE": "PAYLOAD",
    "CLASSIFICATION_TYPE": "U",
    "INTLDES": "21043A",
    "EPOCH": "2023-08-27 08:51:38",
    "EPOCH_MICROSECONDS": "266560",
    "MEAN_MOTION": "13.83376023",
    "ECCENTRICITY": "0.0007532",
    "INCLINATION": "65.9999",
    "RA_OF_ASC_NODE": "336.1431",
    "ARG_OF_PERICENTER": "265.5184",
    "MEAN_ANOMALY": "94.5024",
    "EPHEMERIS_TYPE": "0",
    "ELEMENT_SET_NO": "999",
    "REV_AT_EPOCH": "11479",
    "BSTAR": "0.000058255",
    "MEAN_MOTION_DOT": "-0.00000017",
    "MEAN_MOTION_DDOT": "0",
    "FILE": "3990390",
    "TLE_LINE0": "0 HAIYANG 2D",
    "TLE_LINE1": "1 48621U 21043A   23239.36919290 -.00000017  00000-0  58255-4 0  9997",
    "TLE_LINE2": "2 48621  65.9999 336.1431 0007532 265.5184  94.5024 13.83376023114791",
    "OBJECT_ID": "2021-043A",
    "OBJECT_NUMBER": "48621",
    "SEMIMAJOR_AXIS": "7330.074",
    "PERIOD": "104.093",
    "APOGEE": "957.460",
    "PERIGEE": "946.418",
    "DECAYED": "0"
  }
]